CCSDS_OMM_VERS = 2.0
CREATION_DATE  = 
ORIGINATOR     = 

OBJECT_NAME    = STARLINK-36430
OBJECT_ID      = 2026-002X
CENTER_NAME    = EARTH
REF_FRAME      = TEME
TIME_SYSTEM    = UTC
MEAN_ELEMENT_THEORY = SGP/SGP4

EPOCH          = 2026-01-18T14:00:01.999872
MEAN_MOTION    = 15.76807207
ECCENTRICITY   = .0001531
INCLINATION    = 42.9982
RA_OF_ASC_NODE = 253.7159
ARG_OF_PERICENTER = 260.2290
MEAN_ANOMALY   = 82.0852

EPHEMERIS_TYPE = 0
CLASSIFICATION_TYPE = U
NORAD_CAT_ID   = 67326
ELEMENT_SET_NO = 999
REV_AT_EPOCH   = 352
BSTAR          = -.11192444E-1
MEAN_MOTION_DOT = -.1650229E-1
MEAN_MOTION_DDOT = 0

CCSDS_OMM_VERS = 2.0
CREATION_DATE  = 
ORIGINATOR     = 

OBJECT_NAME    = STARLINK-36501
OBJECT_ID      = 2026-002Y
CENTER_NAME    = EARTH
REF_FRAME      = TEME
TIME_SYSTEM    = UTC
MEAN_ELEMENT_THEORY = SGP/SGP4

EPOCH          = 2026-01-18T14:00:01.999872
MEAN_MOTION    = 15.76926514
ECCENTRICITY   = .0001825
INCLINATION    = 42.9982
RA_OF_ASC_NODE = 253.7222
ARG_OF_PERICENTER = 261.3815
MEAN_ANOMALY   = 78.7562

EPHEMERIS_TYPE = 0
CLASSIFICATION_TYPE = U
NORAD_CAT_ID   = 67327
ELEMENT_SET_NO = 999
REV_AT_EPOCH   = 336
BSTAR          = -.10423187E-1
MEAN_MOTION_DOT = -.1527723E-1
MEAN_MOTION_DDOT = 0

CCSDS_OMM_VERS = 2.0
CREATION_DATE  = 
ORIGINATOR     = 

OBJECT_NAME    = STARLINK-36489
OBJECT_ID      = 2026-002Z
CENTER_NAME    = EARTH
REF_FRAME      = TEME
TIME_SYSTEM    = UTC
MEAN_ELEMENT_THEORY = SGP/SGP4

EPOCH          = 2026-01-18T14:00:01.999872
MEAN_MOTION    = 15.76633205
ECCENTRICITY   = .00017412
INCLINATION    = 42.9983
RA_OF_ASC_NODE = 253.7105
ARG_OF_PERICENTER = 264.2922
MEAN_ANOMALY   = 80.2194

EPHEMERIS_TYPE = 0
CLASSIFICATION_TYPE = U
NORAD_CAT_ID   = 67328
ELEMENT_SET_NO = 999
REV_AT_EPOCH   = 352
BSTAR          = -.11276227E-1
MEAN_MOTION_DOT = -.1649869E-1
MEAN_MOTION_DDOT = 0

CCSDS_OMM_VERS = 2.0
CREATION_DATE  = 
ORIGINATOR     = 

OBJECT_NAME    = STARLINK-36496
OBJECT_ID      = 2026-002AA
CENTER_NAME    = EARTH
REF_FRAME      = TEME
TIME_SYSTEM    = UTC
MEAN_ELEMENT_THEORY = SGP/SGP4

EPOCH          = 2026-01-18T14:00:01.999872
MEAN_MOTION    = 15.76387079
ECCENTRICITY   = .00015116
INCLINATION    = 42.9983
RA_OF_ASC_NODE = 253.6998
ARG_OF_PERICENTER = 260.1845
MEAN_ANOMALY   = 88.4905

EPHEMERIS_TYPE = 0
CLASSIFICATION_TYPE = U
NORAD_CAT_ID   = 67329
ELEMENT_SET_NO = 999
REV_AT_EPOCH   = 334
BSTAR          = -.10778083E-1
MEAN_MOTION_DOT = -.1539922E-1
MEAN_MOTION_DDOT = 0

CCSDS_OMM_VERS = 2.0
CREATION_DATE  = 
ORIGINATOR     = 

OBJECT_NAME    = STARLINK-36483
OBJECT_ID      = 2026-002AB
CENTER_NAME    = EARTH
REF_FRAME      = TEME
TIME_SYSTEM    = UTC
MEAN_ELEMENT_THEORY = SGP/SGP4

EPOCH          = 2026-01-18T14:00:01.999872
MEAN_MOTION    = 15.75869064
ECCENTRICITY   = .00018695
INCLINATION    = 42.9984
RA_OF_ASC_NODE = 253.6885
ARG_OF_PERICENTER = 255.2681
MEAN_ANOMALY   = 97.6788

EPHEMERIS_TYPE = 0
CLASSIFICATION_TYPE = U
NORAD_CAT_ID   = 67330
ELEMENT_SET_NO = 999
REV_AT_EPOCH   = 352
BSTAR          = -.75959823E-2
MEAN_MOTION_DOT = -.1086211E-1
MEAN_MOTION_DDOT = 0

CCSDS_OMM_VERS = 2.0
CREATION_DATE  = 
ORIGINATOR     = 

OBJECT_NAME    = STARLINK-36494
OBJECT_ID      = 2026-002AC
CENTER_NAME    = EARTH
REF_FRAME      = TEME
TIME_SYSTEM    = UTC
MEAN_ELEMENT_THEORY = SGP/SGP4

EPOCH          = 2026-01-18T14:00:01.999872
MEAN_MOTION    = 15.76521313
ECCENTRICITY   = .00014778
INCLINATION    = 42.9980
RA_OF_ASC_NODE = 253.7052
ARG_OF_PERICENTER = 258.3291
MEAN_ANOMALY   = 88.2911

EPHEMERIS_TYPE = 0
CLASSIFICATION_TYPE = U
NORAD_CAT_ID   = 67331
ELEMENT_SET_NO = 999
REV_AT_EPOCH   = 352
BSTAR          = -.11507421E-1
MEAN_MOTION_DOT = -.1672182E-1
MEAN_MOTION_DDOT = 0

CCSDS_OMM_VERS = 2.0
CREATION_DATE  = 
ORIGINATOR     = 

OBJECT_NAME    = STARLINK-36492
OBJECT_ID      = 2026-002AD
CENTER_NAME    = EARTH
REF_FRAME      = TEME
TIME_SYSTEM    = UTC
MEAN_ELEMENT_THEORY = SGP/SGP4

EPOCH          = 2026-01-18T14:00:01.999872
MEAN_MOTION    = 15.75961057
ECCENTRICITY   = .00019819
INCLINATION    = 42.9985
RA_OF_ASC_NODE = 253.6938
ARG_OF_PERICENTER = 254.8808
MEAN_ANOMALY   = 96.0893

EPHEMERIS_TYPE = 0
CLASSIFICATION_TYPE = U
NORAD_CAT_ID   = 67332
ELEMENT_SET_NO = 999
REV_AT_EPOCH   = 352
BSTAR          = -.8529614E-2
MEAN_MOTION_DOT = -.1209026E-1
MEAN_MOTION_DDOT = 0

CCSDS_OMM_VERS = 2.0
CREATION_DATE  = 
ORIGINATOR     = 

OBJECT_NAME    = STARLINK-36427
OBJECT_ID      = 2026-002AE
CENTER_NAME    = EARTH
REF_FRAME      = TEME
TIME_SYSTEM    = UTC
MEAN_ELEMENT_THEORY = SGP/SGP4

EPOCH          = 2026-01-18T14:00:01.999872
MEAN_MOTION    = 15.84355078
ECCENTRICITY   = .00015309
INCLINATION    = 42.9946
RA_OF_ASC_NODE = 253.1443
ARG_OF_PERICENTER = 259.4278
MEAN_ANOMALY   = 308.3335

EPHEMERIS_TYPE = 0
CLASSIFICATION_TYPE = U
NORAD_CAT_ID   = 67333
ELEMENT_SET_NO = 999
REV_AT_EPOCH   = 342
BSTAR          = -.86636336E-2
MEAN_MOTION_DOT = -.1758474E-1
MEAN_MOTION_DDOT = 0

CCSDS_OMM_VERS = 2.0
CREATION_DATE  = 
ORIGINATOR     = 

OBJECT_NAME    = STARLINK-35343
OBJECT_ID      = 2026-003A
CENTER_NAME    = EARTH
REF_FRAME      = TEME
TIME_SYSTEM    = UTC
MEAN_ELEMENT_THEORY = SGP/SGP4

EPOCH          = 2026-01-18T14:00:01.999872
MEAN_MOTION    = 15.89992740
ECCENTRICITY   = .00013351
INCLINATION    = 42.9979
RA_OF_ASC_NODE = 157.3307
ARG_OF_PERICENTER = 282.9730
MEAN_ANOMALY   = 220.9458

EPHEMERIS_TYPE = 0
CLASSIFICATION_TYPE = U
NORAD_CAT_ID   = 67334
ELEMENT_SET_NO = 999
REV_AT_EPOCH   = 255
BSTAR          = -.49002373E-2
MEAN_MOTION_DOT = -.1340995E-1
MEAN_MOTION_DDOT = 0

CCSDS_OMM_VERS = 2.0
CREATION_DATE  = 
ORIGINATOR     = 

OBJECT_NAME    = STARLINK-36486
OBJECT_ID      = 2026-003B
CENTER_NAME    = EARTH
REF_FRAME      = TEME
TIME_SYSTEM    = UTC
MEAN_ELEMENT_THEORY = SGP/SGP4

EPOCH          = 2026-01-18T14:00:01.999872
MEAN_MOTION    = 15.90032508
ECCENTRICITY   = .0001342
INCLINATION    = 42.9979
RA_OF_ASC_NODE = 157.3267
ARG_OF_PERICENTER = 273.8422
MEAN_ANOMALY   = 231.7274

EPHEMERIS_TYPE = 0
CLASSIFICATION_TYPE = U
NORAD_CAT_ID   = 67335
ELEMENT_SET_NO = 999
REV_AT_EPOCH   = 261
BSTAR          = -.49021482E-2
MEAN_MOTION_DOT = -.1343881E-1
MEAN_MOTION_DDOT = 0

CCSDS_OMM_VERS = 2.0
CREATION_DATE  = 
ORIGINATOR     = 

OBJECT_NAME    = STARLINK-36480
OBJECT_ID      = 2026-003C
CENTER_NAME    = EARTH
REF_FRAME      = TEME
TIME_SYSTEM    = UTC
MEAN_ELEMENT_THEORY = SGP/SGP4

EPOCH          = 2026-01-18T14:00:01.999872
MEAN_MOTION    = 15.90070478
ECCENTRICITY   = .0001334
INCLINATION    = 42.9980
RA_OF_ASC_NODE = 157.3212
ARG_OF_PERICENTER = 275.6350
MEAN_ANOMALY   = 232.1339

EPHEMERIS_TYPE = 0
CLASSIFICATION_TYPE = U
NORAD_CAT_ID   = 67336
ELEMENT_SET_NO = 999
REV_AT_EPOCH   = 261
BSTAR          = -.49242522E-2
MEAN_MOTION_DOT = -.1351519E-1
MEAN_MOTION_DDOT = 0

CCSDS_OMM_VERS = 2.0
CREATION_DATE  = 
ORIGINATOR     = 

OBJECT_NAME    = STARLINK-36410
OBJECT_ID      = 2026-003D
CENTER_NAME    = EARTH
REF_FRAME      = TEME
TIME_SYSTEM    = UTC
MEAN_ELEMENT_THEORY = SGP/SGP4

EPOCH          = 2026-01-18T14:00:01.999872
MEAN_MOTION    = 15.90108645
ECCENTRICITY   = .00013338
INCLINATION    = 42.9981
RA_OF_ASC_NODE = 157.3154
ARG_OF_PERICENTER = 279.5547
MEAN_ANOMALY   = 230.4152

EPHEMERIS_TYPE = 0
CLASSIFICATION_TYPE = U
NORAD_CAT_ID   = 67337
ELEMENT_SET_NO = 999
REV_AT_EPOCH   = 261
BSTAR          = -.49443493E-2
MEAN_MOTION_DOT = -.1358704E-1
MEAN_MOTION_DDOT = 0

