STARLINK-36430          
1 67326U 26002X   26018.58335648 -.01650229  00000+0 -11192-1 0  9994
2 67326  42.9982 253.7159 0001531 260.2290  82.0852 15.76807207  3521
STARLINK-36501          
1 67327U 26002Y   26018.58335648 -.01527723  00000+0 -10423-1 0  9993
2 67327  42.9982 253.7222 0001825 261.3815  78.7562 15.76926514  3369
STARLINK-36489          
1 67328U 26002Z   26018.58335648 -.01649869  00000+0 -11276-1 0  9997
2 67328  42.9983 253.7105 0001741 264.2922  80.2194 15.76633205  3528
STARLINK-36496          
1 67329U 26002AA  26018.58335648 -.01539922  00000+0 -10778-1 0  9992
2 67329  42.9983 253.6998 0001511 260.1845  88.4905 15.76387079  3347
STARLINK-36483          
1 67330U 26002AB  26018.58335648 -.01086211  00000+0 -75960-2 0  9997
2 67330  42.9984 253.6885 0001869 255.2681  97.6788 15.75869064  3523
STARLINK-36494          
1 67331U 26002AC  26018.58335648 -.01672182  00000+0 -11507-1 0  9992
2 67331  42.9980 253.7052 0001477 258.3291  88.2911 15.76521313  3520
STARLINK-36492          
1 67332U 26002AD  26018.58335648 -.01209026  00000+0 -85296-2 0  9993
2 67332  42.9985 253.6938 0001981 254.8808  96.0893 15.75961057  3521
STARLINK-36427          
1 67333U 26002AE  26018.58335648 -.01758474  00000+0 -86636-2 0  9999
2 67333  42.9946 253.1443 0001530 259.4278 308.3335 15.84355078  3426
STARLINK-35343          
1 67334U 26003A   26018.58335648 -.01340995  00000+0 -49002-2 0  9992
2 67334  42.9979 157.3307 0001335 282.9730 220.9458 15.89992740  2550
STARLINK-36486          
1 67335U 26003B   26018.58335648 -.01343881  00000+0 -49021-2 0  9991
2 67335  42.9979 157.3267 0001342 273.8422 231.7274 15.90032508  2613
STARLINK-36480          
1 67336U 26003C   26018.58335648 -.01351519  00000+0 -49243-2 0  9995
2 67336  42.9980 157.3212 0001334 275.6350 232.1339 15.90070478  2612
STARLINK-36410          
1 67337U 26003D   26018.58335648 -.01358704  00000+0 -49443-2 0  9991
2 67337  42.9981 157.3154 0001333 279.5547 230.4152 15.90108645  2611
